{
  "type": "FeatureCollection",
  "features": [
    {
      "type": "Feature",
      "properties": {
        "norad_id": 34678,
        "name": "COSMOS 2251 DEB",
        "group": "cosmos-2251-debris",
        "lat": 56.82763600595294,
        "lon": 45.911644697013465,
        "alt_km": 768.6389968112535,
        "timestamp": "2025-12-04T21:36:16.266818+00:00",
        "meta_object_name": "COSMOS 2251 DEB",
        "meta_object_id": "1993-036XY",
        "meta_epoch": "2025-12-04T13:37:47.366976",
        "meta_mean_motion": 14.30062964,
        "meta_eccentricity": 0.0024261,
        "meta_inclination": 74.0382,
        "meta_ra_of_asc_node": 20.5498,
        "meta_arg_of_pericenter": 72.3385,
        "meta_mean_anomaly": 78.3361,
        "meta_ephemeris_type": 0,
        "meta_classification_type": "U",
        "meta_norad_cat_id": 34678,
        "meta_element_set_no": 999,
        "meta_rev_at_epoch": 87262,
        "meta_bstar": 5.8793298e-05,
        "meta_mean_motion_dot": 1.27e-06,
        "meta_mean_motion_ddot": 0,
        "tle_line1": "1 34678U 93036XY  25338.56790934  .00000127  00000+0  58793-4 0  9998",
        "tle_line2": "2 34678  74.0382  20.5498 0024261  72.3385  78.3361 14.30062964872623"
      },
      "geometry": {
        "type": "Point",
        "coordinates": [
          45.911644697013465,
          56.82763600595294
        ]
      }
    },
    {
      "type": "Feature",
      "properties": {
        "norad_id": 34680,
        "name": "COSMOS 2251 DEB",
        "group": "cosmos-2251-debris",
        "lat": -22.001679152229,
        "lon": -28.535879540057724,
        "alt_km": 692.5539491556247,
        "timestamp": "2025-12-04T21:36:16.266828+00:00",
        "meta_object_name": "COSMOS 2251 DEB",
        "meta_object_id": "1993-036YA",
        "meta_epoch": "2025-12-02T11:16:46.526880",
        "meta_mean_motion": 14.6043687,
        "meta_eccentricity": 0.00070971,
        "meta_inclination": 74.0418,
        "meta_ra_of_asc_node": 149.4617,
        "meta_arg_of_pericenter": 243.0574,
        "meta_mean_anomaly": 147.946,
        "meta_ephemeris_type": 0,
        "meta_classification_type": "U",
        "meta_norad_cat_id": 34680,
        "meta_element_set_no": 999,
        "meta_rev_at_epoch": 88178,
        "meta_bstar": 0.0013755581,
        "meta_mean_motion_dot": 6.644e-05,
        "meta_mean_motion_ddot": 0,
        "tle_line1": "1 34680U 93036YA  25336.46998295  .00006644  00000+0  13756-2 0  9996",
        "tle_line2": "2 34680  74.0418 149.4617 0007097 243.0574 147.9460 14.60436870881789"
      },
      "geometry": {
        "type": "Point",
        "coordinates": [
          -28.535879540057724,
          -22.001679152229
        ]
      }
    },
    {
      "type": "Feature",
      "properties": {
        "norad_id": 34681,
        "name": "COSMOS 2251 DEB",
        "group": "cosmos-2251-debris",
        "lat": 22.070669065182805,
        "lon": 119.23477063365658,
        "alt_km": 635.5654773126498,
        "timestamp": "2025-12-04T21:36:16.266838+00:00",
        "meta_object_name": "COSMOS 2251 DEB",
        "meta_object_id": "1993-036YB",
        "meta_epoch": "2025-12-04T08:40:07.394880",
        "meta_mean_motion": 14.82884703,
        "meta_eccentricity": 0.00256895,
        "meta_inclination": 74.0624,
        "meta_ra_of_asc_node": 306.9526,
        "meta_arg_of_pericenter": 5.0332,
        "meta_mean_anomaly": 155.56,
        "meta_ephemeris_type": 0,
        "meta_classification_type": "U",
        "meta_norad_cat_id": 34681,
        "meta_element_set_no": 999,
        "meta_rev_at_epoch": 89146,
        "meta_bstar": 0.0036671008,
        "meta_mean_motion_dot": 0.00029993,
        "meta_mean_motion_ddot": 0,
        "tle_line1": "1 34681U 93036YB  25338.36119670  .00029993  00000+0  36671-2 0  9993",
        "tle_line2": "2 34681  74.0624 306.9526 0025689   5.0332 155.5600 14.82884703891466"
      },
      "geometry": {
        "type": "Point",
        "coordinates": [
          119.23477063365658,
          22.070669065182805
        ]
      }
    },
    {
      "type": "Feature",
      "properties": {
        "norad_id": 34682,
        "name": "COSMOS 2251 DEB",
        "group": "cosmos-2251-debris",
        "lat": -50.63927616185135,
        "lon": -61.66181840560792,
        "alt_km": 690.3973110462221,
        "timestamp": "2025-12-04T21:36:16.266847+00:00",
        "meta_object_name": "COSMOS 2251 DEB",
        "meta_object_id": "1993-036YC",
        "meta_epoch": "2025-12-03T08:28:16.036032",
        "meta_mean_motion": 14.58771685,
        "meta_eccentricity": 0.0018745,
        "meta_inclination": 74.0388,
        "meta_ra_of_asc_node": 100.8621,
        "meta_arg_of_pericenter": 234.1512,
        "meta_mean_anomaly": 157.2088,
        "meta_ephemeris_type": 0,
        "meta_classification_type": "U",
        "meta_norad_cat_id": 34682,
        "meta_element_set_no": 999,
        "meta_rev_at_epoch": 88549,
        "meta_bstar": 0.0013546,
        "meta_mean_motion_dot": 6.321e-05,
        "meta_mean_motion_ddot": 0,
        "tle_line1": "1 34682U 93036YC  25337.35296338  .00006321  00000+0  13546-2 0  9995",
        "tle_line2": "2 34682  74.0388 100.8621 0018745 234.1512 157.2088 14.58771685885493"
      },
      "geometry": {
        "type": "Point",
        "coordinates": [
          -61.66181840560792,
          -50.63927616185135
        ]
      }
    },
    {
      "type": "Feature",
      "properties": {
        "norad_id": 34683,
        "name": "COSMOS 2251 DEB",
        "group": "cosmos-2251-debris",
        "lat": -47.049002722916434,
        "lon": -54.74331322402922,
        "alt_km": 672.6189325734404,
        "timestamp": "2025-12-04T21:36:16.266858+00:00",
        "meta_object_name": "COSMOS 2251 DEB",
        "meta_object_id": "1993-036YD",
        "meta_epoch": "2025-12-03T18:51:40.823424",
        "meta_mean_motion": 14.64268609,
        "meta_eccentricity": 0.0018837,
        "meta_inclination": 74.0284,
        "meta_ra_of_asc_node": 109.4798,
        "meta_arg_of_pericenter": 224.3122,
        "meta_mean_anomaly": 253.6547,
        "meta_ephemeris_type": 0,
        "meta_classification_type": "U",
        "meta_norad_cat_id": 34683,
        "meta_element_set_no": 999,
        "meta_rev_at_epoch": 88217,
        "meta_bstar": 0.0021599236,
        "meta_mean_motion_dot": 0.00011406,
        "meta_mean_motion_ddot": 0,
        "tle_line1": "1 34683U 93036YD  25337.78588916  .00011406  00000+0  21599-2 0  9996",
        "tle_line2": "2 34683  74.0284 109.4798 0018837 224.3122 253.6547 14.64268609882176"
      },
      "geometry": {
        "type": "Point",
        "coordinates": [
          -54.74331322402922,
          -47.049002722916434
        ]
      }
    },
    {
      "type": "Feature",
      "properties": {
        "norad_id": 34685,
        "name": "COSMOS 2251 DEB",
        "group": "cosmos-2251-debris",
        "lat": -34.470641084755734,
        "lon": -4.973847453455658,
        "alt_km": 701.1088905286997,
        "timestamp": "2025-12-04T21:36:16.266867+00:00",
        "meta_object_name": "COSMOS 2251 DEB",
        "meta_object_id": "1993-036YF",
        "meta_epoch": "2025-12-03T23:46:05.230848",
        "meta_mean_motion": 14.57379377,
        "meta_eccentricity": 0.00144098,
        "meta_inclination": 74.0286,
        "meta_ra_of_asc_node": 165.4159,
        "meta_arg_of_pericenter": 269.3813,
        "meta_mean_anomaly": 215.0589,
        "meta_ephemeris_type": 0,
        "meta_classification_type": "U",
        "meta_norad_cat_id": 34685,
        "meta_element_set_no": 999,
        "meta_rev_at_epoch": 88404,
        "meta_bstar": 0.0019131559,
        "meta_mean_motion_dot": 8.667e-05,
        "meta_mean_motion_ddot": 0,
        "tle_line1": "1 34685U 93036YF  25337.99033832  .00008667  00000+0  19132-2 0  9998",
        "tle_line2": "2 34685  74.0286 165.4159 0014409 269.3813 215.0589 14.57379377884043"
      },
      "geometry": {
        "type": "Point",
        "coordinates": [
          -4.973847453455658,
          -34.470641084755734
        ]
      }
    },
    {
      "type": "Feature",
      "properties": {
        "norad_id": 34689,
        "name": "COSMOS 2251 DEB",
        "group": "cosmos-2251-debris",
        "lat": 59.966100829214,
        "lon": 27.465143393477213,
        "alt_km": 1036.0734791546502,
        "timestamp": "2025-12-04T21:36:16.266878+00:00",
        "meta_object_name": "COSMOS 2251 DEB",
        "meta_object_id": "1993-036YK",
        "meta_epoch": "2025-12-01T04:52:05.077056",
        "meta_mean_motion": 14.04150485,
        "meta_eccentricity": 0.0229843,
        "meta_inclination": 74.0888,
        "meta_ra_of_asc_node": 243.4543,
        "meta_arg_of_pericenter": 314.8144,
        "meta_mean_anomaly": 197.2792,
        "meta_ephemeris_type": 0,
        "meta_classification_type": "U",
        "meta_norad_cat_id": 34689,
        "meta_element_set_no": 999,
        "meta_rev_at_epoch": 84179,
        "meta_bstar": 0.0056499,
        "meta_mean_motion_dot": 0.00011323,
        "meta_mean_motion_ddot": 0,
        "tle_line1": "1 34689U 93036YK  25335.20283654  .00011323  00000+0  56499-2 0  9993",
        "tle_line2": "2 34689  74.0888 243.4543 0229843 314.8144 197.2792 14.04150485841793"
      },
      "geometry": {
        "type": "Point",
        "coordinates": [
          27.465143393477213,
          59.966100829214
        ]
      }
    }
  ]
}